[{"OBJECT_NAME":"STARLINK-31026","OBJECT_ID":"2023-191A","EPOCH":"2026-03-09T18:55:44.334912","MEAN_MOTION":15.02546182,"ECCENTRICITY":0.00010954,"INCLINATION":43.0033,"RA_OF_ASC_NODE":106.5212,"ARG_OF_PERICENTER":273.098,"MEAN_ANOMALY":86.9737,"EPHEMERIS_TYPE":0,"CLASSIFICATION_TYPE":"U","NORAD_CAT_ID":58508,"ELEMENT_SET_NO":999,"REV_AT_EPOCH":12544,"BSTAR":-0.00010273813,"MEAN_MOTION_DOT":-1.591e-5,"MEAN_MOTION_DDOT":0},{"OBJECT_NAME":"COSMOS 397 DEB","OBJECT_ID":"1971-015W","EPOCH":"2026-03-09T09:13:02.014176","MEAN_MOTION":13.36711819,"ECCENTRICITY":0.07571879,"INCLINATION":65.7345,"RA_OF_ASC_NODE":80.8462,"ARG_OF_PERICENTER":151.8854,"MEAN_ANOMALY":212.5334,"EPHEMERIS_TYPE":0,"CLASSIFICATION_TYPE":"U","NORAD_CAT_ID":5097,"ELEMENT_SET_NO":999,"REV_AT_EPOCH":62386,"BSTAR":0.00039228108,"MEAN_MOTION_DOT":1.028e-5,"MEAN_MOTION_DDOT":0}]
